SCD 1                   
1 22490U 93009B   26200.20439588  .00000293  00000+0  29380-4 0  9996
2 22490  24.9707   9.8871 0042051 116.7391  43.8082 14.46129525765755
TECHSAT 1B (GO-32)      
1 25397U 98043D   26200.23561672 -.00000001  00000+0  19588-4 0  9998
2 25397  99.0088 193.8054 0002289 108.9690 251.1736 14.24433774455891
SCD 2                   
1 25504U 98060A   26200.27158250  .00000261  00000+0  22147-4 0  9997
2 25504  24.9939 234.2972 0016996 101.9341 335.0632 14.45535486464970
DLR-TUBSAT              
1 25757U 99029B   26200.25843704  .00000004  00000+0  12803-4 0  9999
2 25757  98.6713 196.8206 0013029 251.3173 108.6608 14.52433704437906
TERRA                   
1 25994U 99068A   26200.27316722  .00000163  00000+0  42191-4 0  9991
2 25994  97.9438 248.5443 0003555 114.9038 309.9464 14.61125488414290
MAROC-TUBSAT            
1 27004U 01056D   26200.14034287 -.00000041  00000+0  68557-5 0  9995
2 27004  99.8102  17.6048 0020544  62.3673  53.1115 13.70263612230565
AQUA                    
1 27424U 02022A   26200.29386193  .00000333  00000+0  76148-4 0  9994
2 27424  98.4299 170.2228 0001269 101.7289   3.0103 14.62131777287968
SHIYAN-1 (SY-1)         
1 28220U 04012A   26200.20846391  .00006302  00000+0  19116-3 0  9995
2 28220  97.8677 280.3747 0004221 256.0240 104.0532 15.34509828216008
AURA                    
1 28376U 04026A   26200.23561157  .00000338  00000+0  78060-4 0  9996
2 28376  98.3432 156.9583 0001380  94.1342 266.0016 14.61370995170890
IRS-P5 (CARTOSAT-1)     
1 28649U 05017A   26200.02109667  .00000666  00000+0  72487-4 0  9992
2 28649  97.5306 221.6419 0001133  52.0607 308.0714 14.91122721148561
SINAH 1                 
1 28893U 05043D   26200.31008883  .00000131  00000+0  34363-4 0  9990
2 28893  98.2899 334.8280 0014685 170.7918 189.3557 14.64176944105226
RESURS-DK 1             
1 29228U 06021A   26200.22634253  .00000890  00000+0  55964-4 0  9998
2 29228  69.9302 256.6083 0007351 266.6194  93.4131 15.13327135107420
ARIRANG-2 (KOMPSAT-2)   
1 29268U 06031A   26200.34434323 -.00000077  00000+0 -58958-5 0  9998
2 29268  97.8316  23.2359 0013872 337.4309 143.4516 14.64676220 66180
LAPAN-TUBSAT            
1 29709U 07001A   26200.23957803  .00000590  00000+0  74081-4 0  9999
2 29709  98.1356 200.1887 0013670  82.0690 278.2075 14.85980911 55916
HAIYANG-1B              
1 31113U 07010A   26200.23809050  .00000037  00000+0  29770-4 0  9992
2 31113  98.3518 180.8437 0014771 104.7895 255.4926 14.31033947  5227
COSMO-SKYMED 1          
1 31598U 07023A   26200.28210255  .00001672  00000+0  14967-3 0  9998
2 31598  97.8851  32.4099 0001733  99.6516 260.4901 14.97232646 34590
TERRASAR-X              
1 31698U 07026A   26199.41329748  .00000174  00000+0  11467-4 0  9991
2 31698  97.4454 206.6756 0001859  78.4405 281.7038 15.19149093 57963
WORLDVIEW-1 (WV-1)      
1 32060U 07041A   26200.32439517  .00003023  00000+0  12558-3 0  9998
2 32060  97.3906 319.6190 0001933 189.2818 170.8384 15.24584526 47777
YAOGAN-3                
1 32289U 07055A   26200.34380826  .00000582  00000+0  64679-4 0  9995
2 32289  97.8138 229.9041 0001372  78.6911 281.4461 14.90888225 10660
COSMO-SKYMED 2          
1 32376U 07059A   26200.29606718  .00000158  00000+0  26354-4 0  9998
2 32376  97.8896  23.4298 0001449  94.0302 266.1076 14.82152234  6763
RADARSAT-2              
1 32382U 07061A   26200.29437972  .00000065  00000+0  42113-4 0  9990
2 32382  98.5785 206.7689 0001326  84.4047 275.7286 14.29983896970540
CARTOSAT-2A             
1 32783U 08021A   26200.31202350  .00000530  00000+0  77952-4 0  9991
2 32783  97.7610 247.9217 0012129  14.6985 345.4577 14.79280542983552
HUANJING 1A (HJ-1A)     
1 33320U 08041A   26200.26101954  .00001234  00000+0  15369-3 0  9998
2 33320  97.6705 184.8636 0020104  37.2749 322.9857 14.84056792963169
HUANJING 1B (HJ-1B)     
1 33321U 08041B   26200.24484071  .00000315  00000+0  44175-4 0  9998
2 33321  97.6539 187.9222 0037955  78.4994 282.0479 14.83368321963160
GEOEYE 1                
1 33331U 08042A   26200.26026154  .00000176  00000+0  42022-4 0  9990
2 33331  98.1324 273.8084 0003662 331.9430  28.1575 14.64651205954846
THEOS                   
1 33396U 08049A   26200.30802839 -.00000151  00000+0 -51153-4 0  9995
2 33396  98.5549 256.5460 0001126  90.2930 269.8376 14.20136324922524
COSMO-SKYMED 3          
1 33412U 08054A   26200.27906053  .00002015  00000+0  13817-3 0  9992
2 33412  97.8247  59.3794 0016089 152.7710 207.4363 15.07132745961776
YAOGAN-4                
1 33446U 08061A   26199.80653691  .00000458  00000+0  62562-4 0  9991
2 33446  97.9302 133.0847 0013530 333.4297  26.6222 14.83255048950353
GOSAT (IBUKI)           
1 33492U 09002A   26200.25215758  .00000283  00000+0  58436-4 0  9999
2 33492  98.0915 310.9355 0001120  89.8909 270.2423 14.67542360936161
DEIMOS-1                
1 35681U 09041A   26200.26819898  .00000112  00000+0  23662-4 0  9994
2 35681  97.7443 356.1113 0002814  86.8040 273.3491 14.75265313911614
